CCSDS_OMM_VERS = 2.0
CREATION_DATE  = 
ORIGINATOR     = 

OBJECT_NAME    = VIASAT-3 F3
OBJECT_ID      = 2026-096A
CENTER_NAME    = EARTH
REF_FRAME      = TEME
TIME_SYSTEM    = UTC
MEAN_ELEMENT_THEORY = SGP/SGP4

EPOCH          = 2026-05-22T07:28:38.580096
MEAN_MOTION    = 1.26196328
ECCENTRICITY   = .1285675
INCLINATION    = 2.3915
RA_OF_ASC_NODE = 280.5124
ARG_OF_PERICENTER = 180.9795
MEAN_ANOMALY   = 163.9315

EPHEMERIS_TYPE = 0
CLASSIFICATION_TYPE = U
NORAD_CAT_ID   = 68893
ELEMENT_SET_NO = 999
REV_AT_EPOCH   = 29
BSTAR          = 0
MEAN_MOTION_DOT = -.123E-5
MEAN_MOTION_DDOT = 0

CCSDS_OMM_VERS = 2.0
CREATION_DATE  = 
ORIGINATOR     = 

OBJECT_NAME    = STARLINK-37527
OBJECT_ID      = 2026-097A
CENTER_NAME    = EARTH
REF_FRAME      = TEME
TIME_SYSTEM    = UTC
MEAN_ELEMENT_THEORY = SGP/SGP4

EPOCH          = 2026-05-23T12:00:04.000320
MEAN_MOTION    = 15.49155357
ECCENTRICITY   = .000145
INCLINATION    = 97.2860
RA_OF_ASC_NODE = 339.2341
ARG_OF_PERICENTER = 85.3515
MEAN_ANOMALY   = 280.7448

EPHEMERIS_TYPE = 0
CLASSIFICATION_TYPE = U
NORAD_CAT_ID   = 68895
ELEMENT_SET_NO = 999
REV_AT_EPOCH   = 495
BSTAR          = .19034E-2
MEAN_MOTION_DOT = .104694E-2
MEAN_MOTION_DDOT = 0

CCSDS_OMM_VERS = 2.0
CREATION_DATE  = 
ORIGINATOR     = 

OBJECT_NAME    = STARLINK-37432
OBJECT_ID      = 2026-097B
CENTER_NAME    = EARTH
REF_FRAME      = TEME
TIME_SYSTEM    = UTC
MEAN_ELEMENT_THEORY = SGP/SGP4

EPOCH          = 2026-05-23T12:00:04.000320
MEAN_MOTION    = 15.49173402
ECCENTRICITY   = .0001494
INCLINATION    = 97.2856
RA_OF_ASC_NODE = 339.3255
ARG_OF_PERICENTER = 61.7778
MEAN_ANOMALY   = 156.1740

EPHEMERIS_TYPE = 0
CLASSIFICATION_TYPE = U
NORAD_CAT_ID   = 68896
ELEMENT_SET_NO = 999
REV_AT_EPOCH   = 495
BSTAR          = .96406E-3
MEAN_MOTION_DOT = .52665E-3
MEAN_MOTION_DDOT = 0

CCSDS_OMM_VERS = 2.0
CREATION_DATE  = 
ORIGINATOR     = 

OBJECT_NAME    = STARLINK-37534
OBJECT_ID      = 2026-097C
CENTER_NAME    = EARTH
REF_FRAME      = TEME
TIME_SYSTEM    = UTC
MEAN_ELEMENT_THEORY = SGP/SGP4

EPOCH          = 2026-05-23T12:34:07.305888
MEAN_MOTION    = 15.49203222
ECCENTRICITY   = .0001966
INCLINATION    = 97.2832
RA_OF_ASC_NODE = 339.1951
ARG_OF_PERICENTER = 83.6127
MEAN_ANOMALY   = 276.5348

EPHEMERIS_TYPE = 0
CLASSIFICATION_TYPE = U
NORAD_CAT_ID   = 68897
ELEMENT_SET_NO = 999
REV_AT_EPOCH   = 369
BSTAR          = .57086E-3
MEAN_MOTION_DOT = .31096E-3
MEAN_MOTION_DDOT = 0

CCSDS_OMM_VERS = 2.0
CREATION_DATE  = 
ORIGINATOR     = 

OBJECT_NAME    = STARLINK-37386
OBJECT_ID      = 2026-097D
CENTER_NAME    = EARTH
REF_FRAME      = TEME
TIME_SYSTEM    = UTC
MEAN_ELEMENT_THEORY = SGP/SGP4

EPOCH          = 2026-05-23T12:30:37.130976
MEAN_MOTION    = 15.49209431
ECCENTRICITY   = .0001249
INCLINATION    = 97.2850
RA_OF_ASC_NODE = 339.1999
ARG_OF_PERICENTER = 92.7205
MEAN_ANOMALY   = 267.4189

EPHEMERIS_TYPE = 0
CLASSIFICATION_TYPE = U
NORAD_CAT_ID   = 68898
ELEMENT_SET_NO = 999
REV_AT_EPOCH   = 369
BSTAR          = .46085E-3
MEAN_MOTION_DOT = .25071E-3
MEAN_MOTION_DDOT = 0

CCSDS_OMM_VERS = 2.0
CREATION_DATE  = 
ORIGINATOR     = 

OBJECT_NAME    = STARLINK-37514
OBJECT_ID      = 2026-097E
CENTER_NAME    = EARTH
REF_FRAME      = TEME
TIME_SYSTEM    = UTC
MEAN_ELEMENT_THEORY = SGP/SGP4

EPOCH          = 2026-05-23T12:00:04.000320
MEAN_MOTION    = 15.49145442
ECCENTRICITY   = .0001978
INCLINATION    = 97.2855
RA_OF_ASC_NODE = 339.2555
ARG_OF_PERICENTER = 84.9220
MEAN_ANOMALY   = 335.6732

EPHEMERIS_TYPE = 0
CLASSIFICATION_TYPE = U
NORAD_CAT_ID   = 68899
ELEMENT_SET_NO = 999
REV_AT_EPOCH   = 495
BSTAR          = .16396E-2
MEAN_MOTION_DOT = .89975E-3
MEAN_MOTION_DDOT = 0

CCSDS_OMM_VERS = 2.0
CREATION_DATE  = 
ORIGINATOR     = 

OBJECT_NAME    = STARLINK-36961
OBJECT_ID      = 2026-097F
CENTER_NAME    = EARTH
REF_FRAME      = TEME
TIME_SYSTEM    = UTC
MEAN_ELEMENT_THEORY = SGP/SGP4

EPOCH          = 2026-05-23T12:32:32.464608
MEAN_MOTION    = 15.49205979
ECCENTRICITY   = .0001962
INCLINATION    = 97.2843
RA_OF_ASC_NODE = 339.1988
ARG_OF_PERICENTER = 94.8847
MEAN_ANOMALY   = 265.2629

EPHEMERIS_TYPE = 0
CLASSIFICATION_TYPE = U
NORAD_CAT_ID   = 68900
ELEMENT_SET_NO = 999
REV_AT_EPOCH   = 369
BSTAR          = .46614E-3
MEAN_MOTION_DOT = .25359E-3
MEAN_MOTION_DDOT = 0

CCSDS_OMM_VERS = 2.0
CREATION_DATE  = 
ORIGINATOR     = 

OBJECT_NAME    = STARLINK-37360
OBJECT_ID      = 2026-097G
CENTER_NAME    = EARTH
REF_FRAME      = TEME
TIME_SYSTEM    = UTC
MEAN_ELEMENT_THEORY = SGP/SGP4

EPOCH          = 2026-05-23T12:00:04.000320
MEAN_MOTION    = 15.49148853
ECCENTRICITY   = .0001543
INCLINATION    = 97.2860
RA_OF_ASC_NODE = 339.2556
ARG_OF_PERICENTER = 87.0161
MEAN_ANOMALY   = 332.4431

EPHEMERIS_TYPE = 0
CLASSIFICATION_TYPE = U
NORAD_CAT_ID   = 68901
ELEMENT_SET_NO = 999
REV_AT_EPOCH   = 495
BSTAR          = .1711E-2
MEAN_MOTION_DOT = .93952E-3
MEAN_MOTION_DDOT = 0

CCSDS_OMM_VERS = 2.0
CREATION_DATE  = 
ORIGINATOR     = 

OBJECT_NAME    = STARLINK-37564
OBJECT_ID      = 2026-097H
CENTER_NAME    = EARTH
REF_FRAME      = TEME
TIME_SYSTEM    = UTC
MEAN_ELEMENT_THEORY = SGP/SGP4

EPOCH          = 2026-05-23T12:00:04.000320
MEAN_MOTION    = 15.49147321
ECCENTRICITY   = .000156
INCLINATION    = 97.2862
RA_OF_ASC_NODE = 339.2246
ARG_OF_PERICENTER = 86.2150
MEAN_ANOMALY   = 261.3027

EPHEMERIS_TYPE = 0
CLASSIFICATION_TYPE = U
NORAD_CAT_ID   = 68902
ELEMENT_SET_NO = 999
REV_AT_EPOCH   = 495
BSTAR          = .17184E-2
MEAN_MOTION_DOT = .94358E-3
MEAN_MOTION_DDOT = 0

CCSDS_OMM_VERS = 2.0
CREATION_DATE  = 
ORIGINATOR     = 

OBJECT_NAME    = STARLINK-37567
OBJECT_ID      = 2026-097J
CENTER_NAME    = EARTH
REF_FRAME      = TEME
TIME_SYSTEM    = UTC
MEAN_ELEMENT_THEORY = SGP/SGP4

EPOCH          = 2026-05-23T12:00:04.000320
MEAN_MOTION    = 15.49149833
ECCENTRICITY   = .0001533
INCLINATION    = 97.2858
RA_OF_ASC_NODE = 339.2446
ARG_OF_PERICENTER = 84.1949
MEAN_ANOMALY   = 310.9045

EPHEMERIS_TYPE = 0
CLASSIFICATION_TYPE = U
NORAD_CAT_ID   = 68903
ELEMENT_SET_NO = 999
REV_AT_EPOCH   = 495
BSTAR          = .14918E-2
MEAN_MOTION_DOT = .81778E-3
MEAN_MOTION_DDOT = 0

CCSDS_OMM_VERS = 2.0
CREATION_DATE  = 
ORIGINATOR     = 

OBJECT_NAME    = STARLINK-37528
OBJECT_ID      = 2026-097K
CENTER_NAME    = EARTH
REF_FRAME      = TEME
TIME_SYSTEM    = UTC
MEAN_ELEMENT_THEORY = SGP/SGP4

EPOCH          = 2026-05-23T12:00:04.000320
MEAN_MOTION    = 15.49147978
ECCENTRICITY   = .0001708
INCLINATION    = 97.2858
RA_OF_ASC_NODE = 339.2924
ARG_OF_PERICENTER = 96.9802
MEAN_ANOMALY   = 48.2024

EPHEMERIS_TYPE = 0
CLASSIFICATION_TYPE = U
NORAD_CAT_ID   = 68904
ELEMENT_SET_NO = 999
REV_AT_EPOCH   = 495
BSTAR          = .18857E-2
MEAN_MOTION_DOT = .103681E-2
MEAN_MOTION_DDOT = 0

