VIASAT-3 F3             
1 68893U 26096A   26142.31155764 -.00000123  00000+0  00000+0 0  9999
2 68893   2.3915 280.5124 1285675 180.9795 163.9315  1.26196328   298
STARLINK-37527          
1 68895U 26097A   26143.50004630  .00104694  00000+0  19034-2 0  9996
2 68895  97.2860 339.2341 0001450  85.3515 280.7448 15.49155357  4958
STARLINK-37432          
1 68896U 26097B   26143.50004630  .00052665  00000+0  96406-3 0  9996
2 68896  97.2856 339.3255 0001494  61.7778 156.1740 15.49173402  4958
STARLINK-37534          
1 68897U 26097C   26143.52369567  .00031096  00000+0  57086-3 0  9998
2 68897  97.2832 339.1951 0001966  83.6127 276.5348 15.49203222  3694
STARLINK-37386          
1 68898U 26097D   26143.52126309  .00025071  00000+0  46085-3 0  9997
2 68898  97.2850 339.1999 0001249  92.7205 267.4189 15.49209431  3699
STARLINK-37514          
1 68899U 26097E   26143.50004630  .00089975  00000+0  16396-2 0  9992
2 68899  97.2855 339.2555 0001978  84.9220 335.6732 15.49145442  4956
STARLINK-36961          
1 68900U 26097F   26143.52259797  .00025359  00000+0  46614-3 0  9996
2 68900  97.2843 339.1988 0001962  94.8847 265.2629 15.49205979  3698
STARLINK-37360          
1 68901U 26097G   26143.50004630  .00093952  00000+0  17110-2 0  9991
2 68901  97.2860 339.2556 0001543  87.0161 332.4431 15.49148853  4953
STARLINK-37564          
1 68902U 26097H   26143.50004630  .00094358  00000+0  17184-2 0  9994
2 68902  97.2862 339.2246 0001560  86.2150 261.3027 15.49147321  4950
STARLINK-37567          
1 68903U 26097J   26143.50004630  .00081778  00000+0  14918-2 0  9999
2 68903  97.2858 339.2446 0001533  84.1949 310.9045 15.49149833  4952
STARLINK-37528          
1 68904U 26097K   26143.50004630  .00103681  00000+0  18857-2 0  9994
2 68904  97.2858 339.2924 0001708  96.9802  48.2024 15.49147978  4953
